[
    {
        "Altitude(m)": 717861.8571482181,
        "Argument of Periapsis(deg)": 0.005695060593313534,
        "Eccentricity": 0.0,
        "Inclination(deg)": 45.0,
        "Latitude(deg)": -45.103702495197275,
        "Longitude(deg)": -123.77077531899945,
        "Mean Anomaly(deg)": 267.5848083237404,
        "RAAN(deg)": 69.9946240292709,
        "Satellite Name": "Constellation 1 324",
        "Satellite Number": 324,
        "Semi-Major Axis(m)": 7083131.272910544,
        "Time(s)": 95
    },
    {
        "Altitude(m)": 717862.8827328921,
        "Argument of Periapsis(deg)": 0.00575500859955894,
        "Eccentricity": 0.0,
        "Inclination(deg)": 45.0,
        "Latitude(deg)": -45.10621309011509,
        "Longitude(deg)": -123.68939346892962,
        "Mean Anomaly(deg)": 267.6455094639903,
        "RAAN(deg)": 69.99456744010533,
        "Satellite Name": "Constellation 1 324",
        "Satellite Number": 324,
        "Semi-Major Axis(m)": 7083131.272910544,
        "Time(s)": 96
    },
    {
        "Altitude(m)": 717863.8819831222,
        "Argument of Periapsis(deg)": 0.005814956605804345,
        "Eccentricity": 0.0,
        "Inclination(deg)": 45.0,
        "Latitude(deg)": -45.10865971085929,
        "Longitude(deg)": -123.60800406704838,
        "Mean Anomaly(deg)": 267.7062106042402,
        "RAAN(deg)": 69.99451085093975,
        "Satellite Name": "Constellation 1 324",
        "Satellite Number": 324,
        "Semi-Major Axis(m)": 7083131.272910544,
        "Time(s)": 97
    },
    {
        "Altitude(m)": 717864.8548952006,
        "Argument of Periapsis(deg)": 0.00587490461204975,
        "Eccentricity": 0.0,
        "Inclination(deg)": 45.0,
        "Latitude(deg)": -45.111042346633916,
        "Longitude(deg)": -123.52660747081069,
        "Mean Anomaly(deg)": 267.7669117444901,
        "RAAN(deg)": 69.99445426177418,
        "Satellite Name": "Constellation 1 324",
        "Satellite Number": 324,
        "Semi-Major Axis(m)": 7083131.272910544,
        "Time(s)": 98
    },
    {
        "Altitude(m)": 717865.801465509,
        "Argument of Periapsis(deg)": 0.005934852618295156,
        "Eccentricity": 0.0,
        "Inclination(deg)": 45.0,
        "Latitude(deg)": -45.113360986923226,
        "Longitude(deg)": -123.44520386970234,
        "Mean Anomaly(deg)": 267.82761288474,
        "RAAN(deg)": 69.99439767260863,
        "Satellite Name": "Constellation 1 324",
        "Satellite Number": 324,
        "Semi-Major Axis(m)": 7083131.272910544,
        "Time(s)": 99
    },
    {
        "Altitude(m)": 717866.7216905357,
        "Argument of Periapsis(deg)": 0.005994800624540561,
        "Eccentricity": 0.0,
        "Inclination(deg)": 45.0,
        "Latitude(deg)": -45.115615621491905,
        "Longitude(deg)": -123.36379345333394,
        "Mean Anomaly(deg)": 267.88831402498994,
        "RAAN(deg)": 69.99434108344305,
        "Satellite Name": "Constellation 1 324",
        "Satellite Number": 324,
        "Semi-Major Axis(m)": 7083131.272910544,
        "Time(s)": 100
    },
    {
        "Altitude(m)": 717867.6155668653,
        "Argument of Periapsis(deg)": 0.006054748630785968,
        "Eccentricity": 0.0,
        "Inclination(deg)": 45.0,
        "Latitude(deg)": -45.11780624038513,
        "Longitude(deg)": -123.28237641143744,
        "Mean Anomaly(deg)": 267.9490151652398,
        "RAAN(deg)": 69.99428449427748,
        "Satellite Name": "Constellation 1 324",
        "Satellite Number": 324,
        "Semi-Major Axis(m)": 7083131.272910544,
        "Time(s)": 101
    },
    {
        "Altitude(m)": 717868.483091167,
        "Argument of Periapsis(deg)": 0.006114696637031373,
        "Eccentricity": 0.0,
        "Inclination(deg)": 45.0,
        "Latitude(deg)": -45.11993283392882,
        "Longitude(deg)": -123.2009529338626,
        "Mean Anomaly(deg)": 268.0097163054897,
        "RAAN(deg)": 69.9942279051119,
        "Satellite Name": "Constellation 1 324",
        "Satellite Number": 324,
        "Semi-Major Axis(m)": 7083131.272910544,
        "Time(s)": 102
    },
    {
        "Altitude(m)": 717869.3242602269,
        "Argument of Periapsis(deg)": 0.006174644643276778,
        "Eccentricity": 0.0,
        "Inclination(deg)": 45.0,
        "Latitude(deg)": -45.12199539272992,
        "Longitude(deg)": -123.11952321057454,
        "Mean Anomaly(deg)": 268.0704174457396,
        "RAAN(deg)": 69.99417131594635,
        "Satellite Name": "Constellation 1 324",
        "Satellite Number": 324,
        "Semi-Major Axis(m)": 7083131.272910544,
        "Time(s)": 103
    },
    {
        "Altitude(m)": 717870.1390709114,
        "Argument of Periapsis(deg)": 0.006234592649522184,
        "Eccentricity": 0.0,
        "Inclination(deg)": 45.0,
        "Latitude(deg)": -45.1239939076763,
        "Longitude(deg)": -123.03808759974638,
        "Mean Anomaly(deg)": 268.13111858598955,
        "RAAN(deg)": 69.99411472678077,
        "Satellite Name": "Constellation 1 324",
        "Satellite Number": 324,
        "Semi-Major Axis(m)": 7083131.272910544,
        "Time(s)": 104
    },
    {
        "Altitude(m)": 717870.9275201912,
        "Argument of Periapsis(deg)": 0.00629454065576759,
        "Eccentricity": 0.0,
        "Inclination(deg)": 45.0,
        "Latitude(deg)": -45.12592836993774,
        "Longitude(deg)": -122.95664595536802,
        "Mean Anomaly(deg)": 268.19181972623943,
        "RAAN(deg)": 69.9940581376152,
        "Satellite Name": "Constellation 1 324",
        "Satellite Number": 324,
        "Semi-Major Axis(m)": 7083131.272910544,
        "Time(s)": 105
    },
    {
        "Altitude(m)": 717871.6896051418,
        "Argument of Periapsis(deg)": 0.006354488662012995,
        "Eccentricity": 0.0,
        "Inclination(deg)": 45.0,
        "Latitude(deg)": -45.12779877096505,
        "Longitude(deg)": -122.87519863582554,
        "Mean Anomaly(deg)": 268.2525208664893,
        "RAAN(deg)": 69.99400154844962,
        "Satellite Name": "Constellation 1 324",
        "Satellite Number": 324,
        "Semi-Major Axis(m)": 7083131.272910544,
        "Time(s)": 106
    },
    {
        "Altitude(m)": 717872.4253229237,
        "Argument of Periapsis(deg)": 0.006414436668258401,
        "Eccentricity": 0.0,
        "Inclination(deg)": 45.0,
        "Latitude(deg)": -45.1296051024909,
        "Longitude(deg)": -122.79374583150897,
        "Mean Anomaly(deg)": 268.3132220067391,
        "RAAN(deg)": 69.99394495928406,
        "Satellite Name": "Constellation 1 324",
        "Satellite Number": 324,
        "Semi-Major Axis(m)": 7083131.272910544,
        "Time(s)": 107
    },
    {
        "Altitude(m)": 717873.1346707966,
        "Argument of Periapsis(deg)": 0.0064743846745038075,
        "Eccentricity": 0.0,
        "Inclination(deg)": 45.0,
        "Latitude(deg)": -45.131347356529865,
        "Longitude(deg)": -122.71228773290616,
        "Mean Anomaly(deg)": 268.3739231469891,
        "RAAN(deg)": 69.9938883701185,
        "Satellite Name": "Constellation 1 324",
        "Satellite Number": 324,
        "Semi-Major Axis(m)": 7083131.272910544,
        "Time(s)": 108
    },
    {
        "Altitude(m)": 717873.8176461258,
        "Argument of Periapsis(deg)": 0.0065343326807492125,
        "Eccentricity": 0.0,
        "Inclination(deg)": 45.0,
        "Latitude(deg)": -45.1330255253786,
        "Longitude(deg)": -122.63082453059987,
        "Mean Anomaly(deg)": 268.434624287239,
        "RAAN(deg)": 69.99383178095292,
        "Satellite Name": "Constellation 1 324",
        "Satellite Number": 324,
        "Semi-Major Axis(m)": 7083131.272910544,
        "Time(s)": 109
    },
    {
        "Altitude(m)": 717874.4742463693,
        "Argument of Periapsis(deg)": 0.0065942806869946176,
        "Eccentricity": 0.0,
        "Inclination(deg)": 45.0,
        "Latitude(deg)": -45.13463960161595,
        "Longitude(deg)": -122.54935641526379,
        "Mean Anomaly(deg)": 268.49532542748886,
        "RAAN(deg)": 69.99377519178735,
        "Satellite Name": "Constellation 1 324",
        "Satellite Number": 324,
        "Semi-Major Axis(m)": 7083131.272910544,
        "Time(s)": 110
    },
    {
        "Altitude(m)": 717875.1044690757,
        "Argument of Periapsis(deg)": 0.006654228693240024,
        "Eccentricity": 0.0,
        "Inclination(deg)": 45.0,
        "Latitude(deg)": -45.13618957810302,
        "Longitude(deg)": -122.46788374575638,
        "Mean Anomaly(deg)": 268.5560265677388,
        "RAAN(deg)": 69.99371860262178,
        "Satellite Name": "Constellation 1 324",
        "Satellite Number": 324,
        "Semi-Major Axis(m)": 7083131.272910544,
        "Time(s)": 111
    },
    {
        "Altitude(m)": 717875.7083119083,
        "Argument of Periapsis(deg)": 0.006714176699485429,
        "Eccentricity": 0.0,
        "Inclination(deg)": 45.0,
        "Latitude(deg)": -45.13767544798398,
        "Longitude(deg)": -122.38640637672903,
        "Mean Anomaly(deg)": 268.61672770798873,
        "RAAN(deg)": 69.99366201345622,
        "Satellite Name": "Constellation 1 324",
        "Satellite Number": 324,
        "Semi-Major Axis(m)": 7083131.272910544,
        "Time(s)": 112
    },
    {
        "Altitude(m)": 717876.2857726074,
        "Argument of Periapsis(deg)": 0.006774124705730835,
        "Eccentricity": 0.0,
        "Inclination(deg)": 45.0,
        "Latitude(deg)": -45.1390972046851,
        "Longitude(deg)": -122.30492466720588,
        "Mean Anomaly(deg)": 268.6774288482386,
        "RAAN(deg)": 69.99360542429065,
        "Satellite Name": "Constellation 1 324",
        "Satellite Number": 324,
        "Semi-Major Axis(m)": 7083131.272910544,
        "Time(s)": 113
    }
]